[{"OBJECT_NAME":"STARLINK-4555","OBJECT_ID":"2022-101AX","EPOCH":"2026-03-09T09:12:49.715136","MEAN_MOTION":15.08833288,"ECCENTRICITY":0.00012425,"INCLINATION":53.2175,"RA_OF_ASC_NODE":55.1673,"ARG_OF_PERICENTER":93.5569,"MEAN_ANOMALY":266.5565,"EPHEMERIS_TYPE":0,"CLASSIFICATION_TYPE":"U","NORAD_CAT_ID":53572,"ELEMENT_SET_NO":999,"REV_AT_EPOCH":19640,"BSTAR":5.284738e-5,"MEAN_MOTION_DOT":5.53e-6,"MEAN_MOTION_DDOT":0},{"OBJECT_NAME":"AAC-HSI-SAT1","OBJECT_ID":"2023-054AZ","EPOCH":"2026-03-09T21:58:39.446112","MEAN_MOTION":15.121108,"ECCENTRICITY":0.00115868,"INCLINATION":97.3836,"RA_OF_ASC_NODE":308.6521,"ARG_OF_PERICENTER":105.3166,"MEAN_ANOMALY":254.9346,"EPHEMERIS_TYPE":0,"CLASSIFICATION_TYPE":"U","NORAD_CAT_ID":56225,"ELEMENT_SET_NO":999,"REV_AT_EPOCH":16036,"BSTAR":0.00016323049,"MEAN_MOTION_DOT":2.752e-5,"MEAN_MOTION_DDOT":0}]
